STARLINK-36840          
1 67850U 26034A   26079.83335647 -.01972287  00000+0 -16269-1 0  9996
2 67850  53.1588 155.5717 0001160  66.6502 122.4078 15.72637826  5705
STARLINK-36348          
1 67851U 26034B   26079.83335647 -.01970237  00000+0 -19428-1 0  9990
2 67851  53.1590 155.6399 0001258  65.5924  90.0677 15.68409733  5647
STARLINK-36276          
1 67852U 26034C   26079.83335647 -.01969447  00000+0 -20415-1 0  9990
2 67852  53.1593 155.6583 0001263  58.8282  87.4614 15.67197879  5649
STARLINK-36785          
1 67853U 26034D   26079.60312131  .00329289  00000+0  15986-2 0  9998
2 67853  53.1577 156.6370 0000245 261.4095  98.6900 15.81012547  5668
STARLINK-36608          
1 67854U 26034E   26079.60237405  .00274095  00000+0  13428-2 0  9992
2 67854  53.1573 156.6317 0000812  95.5534 264.5581 15.80966534  5651
STARLINK-36838          
1 67855U 26034F   26079.47518597  .00100879  00000+0  50719-3 0  9995
2 67855  53.1580 157.2599 0001250 115.9218 244.1933 15.80937293  5646
STARLINK-36843          
1 67856U 26034G   26078.52541332 -.00212234  00000+0 -11055-2 0  9994
2 67856  53.1587 162.0024 0003343 124.5278 235.6060 15.80719083  5492
STARLINK-36828          
1 67857U 26034H   26079.41122002  .00312189  00000+0  15262-2 0  9995
2 67857  53.1584 157.5727 0001024  79.8898 280.2240 15.80908231  5630
STARLINK-36837          
1 67858U 26034J   26079.83335647 -.01942832  00000+0 -14156-1 0  9990
2 67858  53.1585 155.4614 0000959  78.5293 163.5070 15.75962321  5644
STARLINK-36393          
1 67859U 26034K   26079.40897052  .00330925  00000+0  16144-2 0  9998
2 67859  53.1584 157.5564 0001117  77.4625 282.6522 15.80904453  5637
STARLINK-35873          
1 67860U 26034L   26079.59787657  .00348712  00000+0  16917-2 0  9990
2 67860  53.1577 156.6016 0001599  72.9093 287.2105 15.80978761  5693
STARLINK-36325          
1 67861U 26034M   26079.40746763  .00281036  00000+0  13695-2 0  9999
2 67861  53.1582 157.5458 0001608 159.4234 200.6854 15.81063637  5631
