CCSDS_OMM_VERS = 2.0
CREATION_DATE  = 
ORIGINATOR     = 

OBJECT_NAME    = STARLINK-36840
OBJECT_ID      = 2026-034A
CENTER_NAME    = EARTH
REF_FRAME      = TEME
TIME_SYSTEM    = UTC
MEAN_ELEMENT_THEORY = SGP/SGP4

EPOCH          = 2026-03-20T20:00:01.999008
MEAN_MOTION    = 15.72637826
ECCENTRICITY   = .000116
INCLINATION    = 53.1588
RA_OF_ASC_NODE = 155.5717
ARG_OF_PERICENTER = 66.6502
MEAN_ANOMALY   = 122.4078

EPHEMERIS_TYPE = 0
CLASSIFICATION_TYPE = U
NORAD_CAT_ID   = 67850
ELEMENT_SET_NO = 999
REV_AT_EPOCH   = 570
BSTAR          = -.16269E-1
MEAN_MOTION_DOT = -.1972287E-1
MEAN_MOTION_DDOT = 0

CCSDS_OMM_VERS = 2.0
CREATION_DATE  = 
ORIGINATOR     = 

OBJECT_NAME    = STARLINK-36348
OBJECT_ID      = 2026-034B
CENTER_NAME    = EARTH
REF_FRAME      = TEME
TIME_SYSTEM    = UTC
MEAN_ELEMENT_THEORY = SGP/SGP4

EPOCH          = 2026-03-20T20:00:01.999008
MEAN_MOTION    = 15.68409733
ECCENTRICITY   = .0001258
INCLINATION    = 53.1590
RA_OF_ASC_NODE = 155.6399
ARG_OF_PERICENTER = 65.5924
MEAN_ANOMALY   = 90.0677

EPHEMERIS_TYPE = 0
CLASSIFICATION_TYPE = U
NORAD_CAT_ID   = 67851
ELEMENT_SET_NO = 999
REV_AT_EPOCH   = 564
BSTAR          = -.19428E-1
MEAN_MOTION_DOT = -.1970237E-1
MEAN_MOTION_DDOT = 0

CCSDS_OMM_VERS = 2.0
CREATION_DATE  = 
ORIGINATOR     = 

OBJECT_NAME    = STARLINK-36276
OBJECT_ID      = 2026-034C
CENTER_NAME    = EARTH
REF_FRAME      = TEME
TIME_SYSTEM    = UTC
MEAN_ELEMENT_THEORY = SGP/SGP4

EPOCH          = 2026-03-20T20:00:01.999008
MEAN_MOTION    = 15.67197879
ECCENTRICITY   = .0001263
INCLINATION    = 53.1593
RA_OF_ASC_NODE = 155.6583
ARG_OF_PERICENTER = 58.8282
MEAN_ANOMALY   = 87.4614

EPHEMERIS_TYPE = 0
CLASSIFICATION_TYPE = U
NORAD_CAT_ID   = 67852
ELEMENT_SET_NO = 999
REV_AT_EPOCH   = 564
BSTAR          = -.20415E-1
MEAN_MOTION_DOT = -.1969447E-1
MEAN_MOTION_DDOT = 0

CCSDS_OMM_VERS = 2.0
CREATION_DATE  = 
ORIGINATOR     = 

OBJECT_NAME    = STARLINK-36785
OBJECT_ID      = 2026-034D
CENTER_NAME    = EARTH
REF_FRAME      = TEME
TIME_SYSTEM    = UTC
MEAN_ELEMENT_THEORY = SGP/SGP4

EPOCH          = 2026-03-20T14:28:29.681184
MEAN_MOTION    = 15.81012547
ECCENTRICITY   = .0000245
INCLINATION    = 53.1577
RA_OF_ASC_NODE = 156.6370
ARG_OF_PERICENTER = 261.4095
MEAN_ANOMALY   = 98.6900

EPHEMERIS_TYPE = 0
CLASSIFICATION_TYPE = U
NORAD_CAT_ID   = 67853
ELEMENT_SET_NO = 999
REV_AT_EPOCH   = 566
BSTAR          = .15986E-2
MEAN_MOTION_DOT = .329289E-2
MEAN_MOTION_DDOT = 0

CCSDS_OMM_VERS = 2.0
CREATION_DATE  = 
ORIGINATOR     = 

OBJECT_NAME    = STARLINK-36608
OBJECT_ID      = 2026-034E
CENTER_NAME    = EARTH
REF_FRAME      = TEME
TIME_SYSTEM    = UTC
MEAN_ELEMENT_THEORY = SGP/SGP4

EPOCH          = 2026-03-20T14:27:25.117920
MEAN_MOTION    = 15.80966534
ECCENTRICITY   = .0000812
INCLINATION    = 53.1573
RA_OF_ASC_NODE = 156.6317
ARG_OF_PERICENTER = 95.5534
MEAN_ANOMALY   = 264.5581

EPHEMERIS_TYPE = 0
CLASSIFICATION_TYPE = U
NORAD_CAT_ID   = 67854
ELEMENT_SET_NO = 999
REV_AT_EPOCH   = 565
BSTAR          = .13428E-2
MEAN_MOTION_DOT = .274095E-2
MEAN_MOTION_DDOT = 0

CCSDS_OMM_VERS = 2.0
CREATION_DATE  = 
ORIGINATOR     = 

OBJECT_NAME    = STARLINK-36838
OBJECT_ID      = 2026-034F
CENTER_NAME    = EARTH
REF_FRAME      = TEME
TIME_SYSTEM    = UTC
MEAN_ELEMENT_THEORY = SGP/SGP4

EPOCH          = 2026-03-20T11:24:16.067808
MEAN_MOTION    = 15.80937293
ECCENTRICITY   = .00012504
INCLINATION    = 53.1580
RA_OF_ASC_NODE = 157.2599
ARG_OF_PERICENTER = 115.9218
MEAN_ANOMALY   = 244.1933

EPHEMERIS_TYPE = 0
CLASSIFICATION_TYPE = U
NORAD_CAT_ID   = 67855
ELEMENT_SET_NO = 999
REV_AT_EPOCH   = 564
BSTAR          = .50718629E-3
MEAN_MOTION_DOT = .100879E-2
MEAN_MOTION_DDOT = 0

CCSDS_OMM_VERS = 2.0
CREATION_DATE  = 
ORIGINATOR     = 

OBJECT_NAME    = STARLINK-36843
OBJECT_ID      = 2026-034G
CENTER_NAME    = EARTH
REF_FRAME      = TEME
TIME_SYSTEM    = UTC
MEAN_ELEMENT_THEORY = SGP/SGP4

EPOCH          = 2026-03-19T12:36:35.710848
MEAN_MOTION    = 15.80719083
ECCENTRICITY   = .00033435
INCLINATION    = 53.1587
RA_OF_ASC_NODE = 162.0024
ARG_OF_PERICENTER = 124.5278
MEAN_ANOMALY   = 235.6060

EPHEMERIS_TYPE = 0
CLASSIFICATION_TYPE = U
NORAD_CAT_ID   = 67856
ELEMENT_SET_NO = 999
REV_AT_EPOCH   = 549
BSTAR          = -.11055222E-2
MEAN_MOTION_DOT = -.212234E-2
MEAN_MOTION_DDOT = 0

CCSDS_OMM_VERS = 2.0
CREATION_DATE  = 
ORIGINATOR     = 

OBJECT_NAME    = STARLINK-36828
OBJECT_ID      = 2026-034H
CENTER_NAME    = EARTH
REF_FRAME      = TEME
TIME_SYSTEM    = UTC
MEAN_ELEMENT_THEORY = SGP/SGP4

EPOCH          = 2026-03-20T09:52:09.409728
MEAN_MOTION    = 15.80908231
ECCENTRICITY   = .00010241
INCLINATION    = 53.1584
RA_OF_ASC_NODE = 157.5727
ARG_OF_PERICENTER = 79.8898
MEAN_ANOMALY   = 280.2240

EPHEMERIS_TYPE = 0
CLASSIFICATION_TYPE = U
NORAD_CAT_ID   = 67857
ELEMENT_SET_NO = 999
REV_AT_EPOCH   = 563
BSTAR          = .15262481E-2
MEAN_MOTION_DOT = .312189E-2
MEAN_MOTION_DDOT = 0

CCSDS_OMM_VERS = 2.0
CREATION_DATE  = 
ORIGINATOR     = 

OBJECT_NAME    = STARLINK-36837
OBJECT_ID      = 2026-034J
CENTER_NAME    = EARTH
REF_FRAME      = TEME
TIME_SYSTEM    = UTC
MEAN_ELEMENT_THEORY = SGP/SGP4

EPOCH          = 2026-03-20T20:00:01.999008
MEAN_MOTION    = 15.75962321
ECCENTRICITY   = .0000959
INCLINATION    = 53.1585
RA_OF_ASC_NODE = 155.4614
ARG_OF_PERICENTER = 78.5293
MEAN_ANOMALY   = 163.5070

EPHEMERIS_TYPE = 0
CLASSIFICATION_TYPE = U
NORAD_CAT_ID   = 67858
ELEMENT_SET_NO = 999
REV_AT_EPOCH   = 564
BSTAR          = -.14156E-1
MEAN_MOTION_DOT = -.1942832E-1
MEAN_MOTION_DDOT = 0

CCSDS_OMM_VERS = 2.0
CREATION_DATE  = 
ORIGINATOR     = 

OBJECT_NAME    = STARLINK-36393
OBJECT_ID      = 2026-034K
CENTER_NAME    = EARTH
REF_FRAME      = TEME
TIME_SYSTEM    = UTC
MEAN_ELEMENT_THEORY = SGP/SGP4

EPOCH          = 2026-03-20T09:48:55.052928
MEAN_MOTION    = 15.80904453
ECCENTRICITY   = .00011178
INCLINATION    = 53.1584
RA_OF_ASC_NODE = 157.5564
ARG_OF_PERICENTER = 77.4625
MEAN_ANOMALY   = 282.6522

EPHEMERIS_TYPE = 0
CLASSIFICATION_TYPE = U
NORAD_CAT_ID   = 67859
ELEMENT_SET_NO = 999
REV_AT_EPOCH   = 563
BSTAR          = .16143789E-2
MEAN_MOTION_DOT = .330925E-2
MEAN_MOTION_DDOT = 0

CCSDS_OMM_VERS = 2.0
CREATION_DATE  = 
ORIGINATOR     = 

OBJECT_NAME    = STARLINK-35873
OBJECT_ID      = 2026-034L
CENTER_NAME    = EARTH
REF_FRAME      = TEME
TIME_SYSTEM    = UTC
MEAN_ELEMENT_THEORY = SGP/SGP4

EPOCH          = 2026-03-20T14:20:56.535648
MEAN_MOTION    = 15.80978761
ECCENTRICITY   = .0001599
INCLINATION    = 53.1577
RA_OF_ASC_NODE = 156.6016
ARG_OF_PERICENTER = 72.9093
MEAN_ANOMALY   = 287.2105

EPHEMERIS_TYPE = 0
CLASSIFICATION_TYPE = U
NORAD_CAT_ID   = 67860
ELEMENT_SET_NO = 999
REV_AT_EPOCH   = 569
BSTAR          = .16917E-2
MEAN_MOTION_DOT = .348712E-2
MEAN_MOTION_DDOT = 0

CCSDS_OMM_VERS = 2.0
CREATION_DATE  = 
ORIGINATOR     = 

OBJECT_NAME    = STARLINK-36325
OBJECT_ID      = 2026-034M
CENTER_NAME    = EARTH
REF_FRAME      = TEME
TIME_SYSTEM    = UTC
MEAN_ELEMENT_THEORY = SGP/SGP4

EPOCH          = 2026-03-20T09:46:45.203232
MEAN_MOTION    = 15.81063637
ECCENTRICITY   = .00016088
INCLINATION    = 53.1582
RA_OF_ASC_NODE = 157.5458
ARG_OF_PERICENTER = 159.4234
MEAN_ANOMALY   = 200.6854

EPHEMERIS_TYPE = 0
CLASSIFICATION_TYPE = U
NORAD_CAT_ID   = 67861
ELEMENT_SET_NO = 999
REV_AT_EPOCH   = 563
BSTAR          = .13694984E-2
MEAN_MOTION_DOT = .281036E-2
MEAN_MOTION_DDOT = 0

